{
    "links": {
        "self": "http://www.neowsapp.com/rest/v1/neo/3873201?api_key=iIulBulltgU6a56xZRHN4H3l9WmuAYTsLGpBGhQ2"
    },
    "id": "3873201",
    "neo_reference_id": "3873201",
    "name": "(2019 TH)",
    "designation": "2019 TH",
    "nasa_jpl_url": "http://ssd.jpl.nasa.gov/sbdb.cgi?sstr=3873201",
    "absolute_magnitude_h": 25.7,
    "estimated_diameter": {
        "kilometers": {
            "estimated_diameter_min": 0.0192555078,
            "estimated_diameter_max": 0.0430566244
        },
        "meters": {
            "estimated_diameter_min": 19.2555078188,
            "estimated_diameter_max": 43.0566244241
        },
        "miles": {
            "estimated_diameter_min": 0.0119648141,
            "estimated_diameter_max": 0.0267541378
        },
        "feet": {
            "estimated_diameter_min": 63.1742402722,
            "estimated_diameter_max": 141.2618956756
        }
    },
    "is_potentially_hazardous_asteroid": false,
    "close_approach_data": [
        {
            "close_approach_date": "2019-10-06",
            "close_approach_date_full": "2019-Oct-06 23:47",
            "epoch_date_close_approach": 1570405620000,
            "relative_velocity": {
                "kilometers_per_second": "11.4797530267",
                "kilometers_per_hour": "41327.1108961736",
                "miles_per_hour": "25679.0595454586"
            },
            "miss_distance": {
                "astronomical": "0.0375586481",
                "lunar": "14.6103141109",
                "kilometers": "5618693.755839547",
                "miles": "3491294.4064058686"
            },
            "orbiting_body": "Earth"
        }
    ],
    "orbital_data": {
        "orbit_id": "2",
        "orbit_determination_date": "2019-10-20 06:05:11",
        "first_observation_date": "2019-09-24",
        "last_observation_date": "2019-10-04",
        "data_arc_in_days": 10,
        "observations_used": 29,
        "orbit_uncertainty": "8",
        "minimum_orbit_intersection": ".036544",
        "jupiter_tisserand_invariant": "4.058",
        "epoch_osculation": "2458752.5",
        "eccentricity": ".4624920921834443",
        "semi_major_axis": "1.69428839475016",
        "inclination": "12.77778964598022",
        "ascending_node_longitude": "5.400248217289977",
        "orbital_period": "805.5257556987993",
        "perihelion_distance": ".910693410300029",
        "perihelion_argument": "56.52495700820482",
        "aphelion_distance": "2.477883379200291",
        "perihelion_time": "2458802.198194646920",
        "mean_anomaly": "337.7892265438858",
        "mean_motion": ".4469130843466295",
        "equinox": "J2000",
        "orbit_class": {
            "orbit_class_type": "APO",
            "orbit_class_description": "Near-Earth asteroid orbits which cross the Earth’s orbit similar to that of 1862 Apollo",
            "orbit_class_range": "a (semi-major axis) > 1.0 AU; q (perihelion) < 1.017 AU"
        }
    },
    "is_sentry_object": false
}